[{"OBJECT_NAME":"STARLINK-34714","OBJECT_ID":"2025-158H","EPOCH":"2026-03-09T15:26:25.636128","MEAN_MOTION":15.05667828,"ECCENTRICITY":0.0001395,"INCLINATION":97.6029,"RA_OF_ASC_NODE":294.1154,"ARG_OF_PERICENTER":61.921,"MEAN_ANOMALY":298.2158,"EPHEMERIS_TYPE":0,"CLASSIFICATION_TYPE":"U","NORAD_CAT_ID":64939,"ELEMENT_SET_NO":999,"REV_AT_EPOCH":3519,"BSTAR":0.00048537,"MEAN_MOTION_DOT":6.953e-5,"MEAN_MOTION_DDOT":0},{"OBJECT_NAME":"COSMOS 2251 DEB","OBJECT_ID":"1993-036AJC","EPOCH":"2026-03-07T22:08:36.037248","MEAN_MOTION":15.09712263,"ECCENTRICITY":0.00171889,"INCLINATION":73.9945,"RA_OF_ASC_NODE":155.7464,"ARG_OF_PERICENTER":279.7001,"MEAN_ANOMALY":80.2249,"EPHEMERIS_TYPE":0,"CLASSIFICATION_TYPE":"U","NORAD_CAT_ID":35073,"ELEMENT_SET_NO":999,"REV_AT_EPOCH":68760,"BSTAR":0.00527522,"MEAN_MOTION_DOT":0.00086343,"MEAN_MOTION_DDOT":0}]
